CUBEBUG-2 (LO-74)       
1 39440U 13066AA  26198.27147315  .00002015  00000+0  18926-3 0  9998
2 39440  97.8919 147.3840 0055615 288.3376  71.1800 14.93975515681484
FUNCUBE-1 (AO-73)       
1 39444U 13066AE  26197.88324087  .00004077  00000+0  25213-3 0  9998
2 39444  97.8292 169.9592 0037940 102.2043 258.3439 15.09830753684147
UWE-3                   
1 39446U 13066AG  26197.82397772  .00002047  00000+0  17840-3 0  9997
2 39446  97.8716 154.1042 0047570 218.9248 140.8545 14.97205791682019
UNISAT-6                
1 40012U 14033C   26198.25284144  .00001050  00000+0  11750-3 0  9996
2 40012  97.7911 350.4435 0044022 330.8621  29.0140 14.88371050650635
DUCHIFAT-1              
1 40021U 14033M   26197.69874411  .00099153  00000+0  77546-3 0  9991
2 40021  98.0414 261.1627 0002786 236.8489 123.2505 15.71313651660376
QB50P1                  
1 40025U 14033R   26198.00121204  .00004208  00000+0  20647-3 0  9993
2 40025  98.0964 211.2472 0010459 119.5295 240.6982 15.18681576657556
LILACSAT-2              
1 40908U 15049K   26198.25434853  .00010421  00000+0  17214-3 0  9995
2 40908  97.4621 236.2537 0008506 135.4502 224.7436 15.52405502600417
FOX-1A (AO-85)          
1 40967U 15058D   26197.32760414  .00001582  00000+0  15016-3 0  9998
2 40967  64.7725 188.4142 0132456  45.3781 315.8042 14.91092003117917
CAS-2T & KS-1Q          
1 41847U 16066G   26198.15953041  .00000472  00000+0  74643-4 0  9997
2 41847  98.3813 273.5527 0342143  38.8094 323.7141 14.44772533509126
RADFXSAT (FOX-1B)       
1 43017U 17073E   26198.10306237  .00004326  00000+0  18980-3 0  9994
2 43017  97.4662  64.7083 0148313 224.8184 134.0992 15.13077780469914
DIWATA-2B               
1 43678U 18084H   26198.31146439  .00000994  00000+0  83833-4 0  9996
2 43678  98.1210  35.8389 0012721  77.8123 282.4524 15.00567673420731
ES'HAIL 2               
1 43700U 18090A   26198.27302819  .00000134  00000+0  00000+0 0  9996
2 43700   0.0126  71.3477 0002289  87.3244 260.4860  1.00272108 27975
FOX-1CLIFF (AO-95)      
1 43770U 18099N   26198.15550848  .00005777  00000+0  21872-3 0  9998
2 43770  97.4364 258.3011 0007413 231.7430 128.3143 15.27297628417790
ITASAT                  
1 43786U 18099AE  26198.12176822  .00003185  00000+0  15348-3 0  9990
2 43786  97.4008 249.0402 0010969 242.8009 117.2109 15.19395297417452
JY1SAT (JO-97)          
1 43803U 18099AX  26197.70840268  .00010103  00000+0  30396-3 0  9993
2 43803  97.4110 260.6613 0006994 153.6431 206.5169 15.34550143418156
UWE-4                   
1 43880U 18111E   26197.77458578  .00021334  00000+0  41089-3 0  9998
2 43880  97.5845 127.5685 0006445 188.3610 171.7533 15.47882980415350
TIANYAN 01              
1 44881U 19093C   26198.26761454 -.00000075  00000+0 -24652-5 0  9995
2 44881  97.7521 269.7646 0013404 354.5747   5.5321 14.86560049355883
RS-44 & BREEZE-KM R/B   
1 44909U 19096E   26198.26105835  .00000021  00000+0  31533-4 0  9998
2 44909  82.5243 319.7219 0218511  74.1844 288.3230 12.79748896306196
SALSAT                  
1 46495U 20068K   26197.96833821  .00003909  00000+0  13663-3 0  9991
2 46495  97.8858 202.8562 0009384 186.4299 173.6821 15.30186484319914
XW-3 (CAS-9)            
1 50466U 21131B   26198.32108411  .00000045  00000+0  27461-4 0  9997
2 50466  98.4992 290.5482 0004450  25.0845 335.0559 14.41382106239454
GREENCUBE (IO-117)      
1 53109U 22080E   26198.22212606 -.00000003  00000+0  00000+0 0  9999
2 53109  70.1407 287.8015 0009071 282.9900  76.9746  6.42583336 93996
UMKA 1 (RS40S)          
1 57172U 23091G   26198.22514470  .00002961  00000+0  13596-3 0  9992
2 57172  97.5031 256.8104 0012837  22.7170 337.4631 15.21133696168576
CUBESX-HSE 3 (RS42S)    
1 57178U 23091N   26198.22736078  .00006759  00000+0  22167-3 0  9991
2 57178  97.5073 264.2069 0009454 354.5415   5.5721 15.31913775169029
MONITOR-3 (RS58S)       
1 57180U 23091Q   26198.18863716  .00005476  00000+0  20056-3 0  9999
2 57180  97.5065 261.8641 0010767   2.6877 357.4418 15.28394908168875
MONITOR-4 (RS57S)       
1 57182U 23091S   26198.23148693  .00005363  00000+0  19598-3 0  9991
2 57182  97.5058 261.8802 0010769   2.7642 357.3655 15.28482424168885
MONITOR-2 (RS39S)       
1 57184U 23091U   26198.28473629  .00002368  00000+0  11576-3 0  9998
2 57184  97.5053 256.3752 0011168  16.9779 343.1827 15.19164858168520
SVYATOBOR 1 (RS60S)     
1 57187U 23091X   26198.27129222  .00004620  00000+0  17662-3 0  9992
2 57187  97.5072 262.2622 0008540 357.1942   2.9248 15.27082819168902
VIZARD-METEO (RS38S)    
1 57189U 23091Z   26198.23545576  .00008926  00000+0  24953-3 0  9998
2 57189  97.5074 268.3405 0005498 331.0314  29.0624 15.36913044169301
POLYTECH-UNIVERSE 3 (R*)
1 57191U 23091AB  26198.24196828  .00002639  00000+0  12767-3 0  9999
2 57191  97.5029 255.8370 0015888  30.9908 329.2261 15.19377467168512
UTMN 2 (RS27S)          
1 57203U 23091AP  26198.22877510  .00006491  00000+0  20782-3 0  9991
2 57203  97.5069 265.8786 0006530 342.2949  17.8065 15.32730262169143
